NORAD_CAT_ID,OBJECT_NAME,OBJECT_TYPE,EPOCH,MEAN_MOTION,ECCENTRICITY,INCLINATION,RA_OF_ASC_NODE,ARG_OF_PERICENTER,MEAN_ANOMALY,BSTAR,MEAN_MOTION_DOT,MEAN_MOTION_DDOT,TLE_LINE0,TLE_LINE1,TLE_LINE2,SEMIMAJOR_AXIS,PERIOD,APOGEE,PERIGEE,DECAYED
55751.0,STARLINK-5577,PAYLOAD,2024-01-23 04:13:27,14.9832849,0.0002663,70.0,42.4139,263.8088,96.2768,3.3309e-05,3.04e-06,0.0,0 STARLINK-5577,1 55751U 23028L   24023.17601781  .00000304  00000-0  33309-4 0  9999,2 55751  70.0000  42.4139 0002663 263.8088  96.2768 14.98328490 49725,6950.198,96.107,573.913,570.212,0.0
55751.0,STARLINK-5577,PAYLOAD,2024-01-23 05:49:36,14.98328348,0.0002661,70.0,42.2456,263.2765,96.8091,3.2647e-05,2.97e-06,0.0,0 STARLINK-5577,1 55751U 23028L   24023.24277819  .00000297  00000-0  32647-4 0  9993,2 55751  70.0000  42.2456 0002661 263.2765  96.8091 14.98328348 49737,6950.198,96.107,573.912,570.214,0.0
55751.0,STARLINK-5577,PAYLOAD,2024-01-23 10:38:00,14.98329656,0.0002634,70.0002,41.7408,263.1349,96.9511,4.7076e-05,4.69e-06,0.0,0 STARLINK-5577,1 55751U 23028L   24023.44305709  .00000469  00000-0  47076-4 0  9998,2 55751  70.0002  41.7408 0002634 263.1349  96.9511 14.98329656 49761,6950.194,96.107,573.89,570.228,0.0
55751.0,STARLINK-5577,PAYLOAD,2024-01-24 10:40:01,14.98328573,0.0002582,70.0005,39.2164,258.3098,101.7771,-2.8935e-06,-1.27e-06,0.0,0 STARLINK-5577,1 55751U 23028L   24024.44445915 -.00000127  00000-0 -28935-5 0  9990,2 55751  70.0005  39.2164 0002582 258.3098 101.7771 14.98328573 49911,6950.197,96.107,573.857,570.268,0.0
55751.0,STARLINK-5577,PAYLOAD,2024-01-25 10:42:01,14.98333197,0.0002696,70.0004,36.6916,262.5481,97.5372,4.3394e-05,4.25e-06,0.0,0 STARLINK-5577,1 55751U 23028L   24025.44585421  .00000425  00000-0  43394-4 0  9992,2 55751  70.0004  36.6916 0002696 262.5481  97.5372 14.98333197 50060,6950.183,96.107,573.922,570.174,0.0
55751.0,STARLINK-5577,PAYLOAD,2024-01-26 10:44:02,14.98329907,0.0002723,70.0004,34.1669,262.4118,97.6731,2.6022e-05,2.18e-06,0.0,0 STARLINK-5577,1 55751U 23028L   24026.44725613  .00000218  00000-0  26022-4 0  9991,2 55751  70.0004  34.1669 0002723 262.4118  97.6731 14.98329907 50216,6950.193,96.107,573.951,570.166,0.0
55751.0,STARLINK-5577,PAYLOAD,2024-01-27 10:46:03,14.98329728,0.0002677,70.0005,31.6415,263.0697,97.0157,-1.3647e-05,-2.56e-06,0.0,0 STARLINK-5577,1 55751U 23028L   24027.44865738 -.00000256  00000-0 -13647-4 0  9998,2 55751  70.0005  31.6415 0002677 263.0697  97.0157 14.98329728 50368,6950.194,96.107,573.919,570.198,0.0
55751.0,STARLINK-5577,PAYLOAD,2024-01-28 10:48:04,14.98332111,0.0002776,70.0004,29.1164,262.8184,97.2659,4.433e-05,4.36e-06,0.0,0 STARLINK-5577,1 55751U 23028L   24028.45005305  .00000436  00000-0  44330-4 0  9997,2 55751  70.0004  29.1164 0002776 262.8184  97.2659 14.98332111 50514,6950.186,96.107,573.981,570.122,0.0
55751.0,STARLINK-5577,PAYLOAD,2024-01-29 09:13:57,14.98330744,0.0002771,70.0005,26.7596,263.5762,96.5082,4.7277e-05,4.71e-06,0.0,0 STARLINK-5577,1 55751U 23028L   24029.38469350  .00000471  00000-0  47277-4 0  9996,2 55751  70.0005  26.7596 0002771 263.5762  96.5082 14.98330744 50659,6950.191,96.107,573.981,570.13,0.0
55751.0,STARLINK-5577,PAYLOAD,2024-01-30 04:27:34,14.98330201,0.0002678,70.0009,24.7401,259.9432,100.1425,3.4475e-06,-5.2e-07,0.0,0 STARLINK-5577,1 55751U 23028L   24030.18581444 -.00000052  00000-0  34475-5 0  9998,2 55751  70.0009  24.7401 0002678 259.9432 100.1425 14.98330201 50779,6950.192,96.107,573.919,570.196,0.0
55751.0,STARLINK-5577,PAYLOAD,2024-01-30 09:15:58,14.98329957,0.0002725,70.0008,24.2348,263.5425,96.5424,-2.5151e-06,-1.23e-06,0.0,0 STARLINK-5577,1 55751U 23028L   24030.38609489 -.00000123  00000-0 -25151-5 0  9991,2 55751  70.0008  24.2348 0002725 263.5425  96.5424 14.98329957 50806,6950.193,96.107,573.952,570.164,0.0
55751.0,STARLINK-5577,PAYLOAD,2024-01-31 04:29:35,14.98331198,0.0002774,70.0007,22.215,264.1294,95.9549,2.1178e-05,1.6e-06,0.0,0 STARLINK-5577,1 55751U 23028L   24031.18721272  .00000160  00000-0  21178-4 0  9998,2 55751  70.0007  22.2150 0002774 264.1294  95.9549 14.98331198 50923,6950.189,96.107,573.982,570.126,0.0
55751.0,STARLINK-5577,PAYLOAD,2024-01-31 09:17:59,14.98331327,0.0002781,70.0008,21.7104,264.8994,95.1847,2.1511e-05,1.64e-06,0.0,0 STARLINK-5577,1 55751U 23028L   24031.38749263  .00000164  00000-0  21511-4 0  9995,2 55751  70.0008  21.7104 0002781 264.8994  95.1847 14.98331327 50959,6950.189,96.107,573.987,570.121,0.0
55751.0,STARLINK-5577,PAYLOAD,2024-01-31 22:07:04,14.983222,0.0002778,70.0009,20.3645,263.6404,96.4439,0.00012974,1.455e-05,0.0,0 STARLINK-5577,1 55751U 23028L   24031.92157419  .00001455  00000-0  12974-3 0  9997,2 55751  70.0009  20.3645 0002778 263.6404  96.4439 14.98322200 51035,6950.217,96.107,574.013,570.151,0.0
55751.0,STARLINK-5577,PAYLOAD,2024-02-01 02:55:28,14.98308061,0.000267,70.0008,19.858,263.0696,97.016,0.00029694,3.45e-05,0.0,0 STARLINK-5577,1 55751U 23028L   24032.12185874  .00003450  00000-0  29694-3 0  9990,2 55751  70.0008  19.8580 0002670 263.0696  97.0160 14.98308061 51063,6950.261,96.108,573.981,570.27,0.0
55751.0,STARLINK-5577,PAYLOAD,2024-02-01 09:20:00,14.98327359,0.0002648,70.0013,19.1849,260.0145,100.0716,-7.4403e-06,-1.82e-06,0.0,0 STARLINK-5577,1 55751U 23028L   24032.38889648 -.00000182  00000-0 -74403-5 0  9999,2 55751  70.0013  19.1849 0002648 260.0145 100.0716 14.98327359 51109,6950.201,96.107,573.906,570.226,0.0
55751.0,STARLINK-5577,PAYLOAD,2024-02-02 04:33:35,14.98345622,0.0002489,70.0015,17.1648,260.5724,99.5153,0.00017743,2.026e-05,0.0,0 STARLINK-5577,1 55751U 23028L   24033.18999437  .00002026  00000-0  17743-3 0  9995,2 55751  70.0015  17.1648 0002489 260.5724  99.5153 14.98345622 51220,6950.145,96.106,573.739,570.28,0.0
55751.0,STARLINK-5577,PAYLOAD,2024-02-02 09:21:59,14.98348139,0.0002523,70.0013,16.6599,263.6481,96.439,0.00019161,2.195e-05,0.0,0 STARLINK-5577,1 55751U 23028L   24033.39027048  .00002195  00000-0  19161-3 0  9991,2 55751  70.0013  16.6599 0002523 263.6481  96.4390 14.98348139 51258,6950.137,96.106,573.755,570.248,0.0
55751.0,STARLINK-5577,PAYLOAD,2024-02-03 02:59:29,14.98322798,0.0002975,70.0001,14.8073,264.299,95.783,-4.6433e-05,-6.47e-06,0.0,0 STARLINK-5577,1 55751U 23028L   24034.12465070 -.00000647  00000-0 -46433-4 0  9999,2 55751  70.0001  14.8073 0002975 264.2990  95.7830 14.98322798 51361,6950.215,96.107,574.148,570.012,0.0
55751.0,STARLINK-5577,PAYLOAD,2024-02-03 09:24:02,14.98321347,0.0003003,70.0004,14.1343,265.1212,94.9604,-9.1886e-05,-1.189e-05,0.0,0 STARLINK-5577,1 55751U 23028L   24034.39169404 -.00001189  00000-0 -91886-4 0  9994,2 55751  70.0004  14.1343 0003003 265.1212  94.9604 14.98321347 51401,6950.22,96.108,574.172,569.997,0.0
55751.0,STARLINK-5577,PAYLOAD,2024-02-04 04:37:38,14.98333676,0.0002972,70.0003,12.1143,266.489,93.593,-0.00018536,-2.304e-05,0.0,0 STARLINK-5577,1 55751U 23028L   24035.19280900 -.00002304  00000-0 -18536-3 0  9998,2 55751  70.0003  12.1143 0002972 266.4890  93.5930 14.98333676 51524,6950.182,96.107,574.112,569.981,0.0
55751.0,STARLINK-5577,PAYLOAD,2024-02-04 07:49:54,14.98336596,0.0002847,70.0007,11.7779,265.0739,95.0095,-0.00012886,-1.63e-05,0.0,0 STARLINK-5577,1 55751U 23028L   24035.32632575 -.00001630  00000-0 -12886-3 0  9995,2 55751  70.0007  11.7779 0002847 265.0739  95.0095 14.98336596 51541,6950.172,96.107,574.016,570.059,0.0
55751.0,STARLINK-5577,PAYLOAD,2024-02-04 22:15:07,14.98321522,0.0002871,70.0007,10.263,264.8612,95.2219,0.00013956,1.572e-05,0.0,0 STARLINK-5577,1 55751U 23028L   24035.92716773  .00001572  00000-0  13956-3 0  9996,2 55751  70.0007  10.2630 0002871 264.8612  95.2219 14.98321522 51638,6950.219,96.108,574.08,570.089,0.0
55751.0,STARLINK-5577,PAYLOAD,2024-02-05 04:39:39,14.98320624,0.0002776,70.0009,9.5895,262.6104,97.4739,0.00019664,2.253e-05,0.0,0 STARLINK-5577,1 55751U 23028L   24036.19420808  .00002253  00000-0  19664-3 0  9996,2 55751  70.0009   9.5895 0002776 262.6104  97.4739 14.98320624 51677,6950.222,96.108,574.016,570.158,0.0
55751.0,STARLINK-5577,PAYLOAD,2024-02-05 07:51:55,14.9832763,0.000283,70.0009,9.2531,264.3005,95.7832,0.0001938,2.22e-05,0.0,0 STARLINK-5577,1 55751U 23028L   24036.32772436  .00002220  00000-0  19380-3 0  9997,2 55751  70.0009   9.2531 0002830 264.3005  95.7832 14.98327630 51692,6950.2,96.107,574.032,570.098,0.0
55751.0,STARLINK-5577,PAYLOAD,2024-02-05 22:17:08,14.9832542,0.0002685,70.0018,7.7389,263.6046,96.4807,0.00011582,1.289e-05,0.0,0 STARLINK-5577,1 55751U 23028L   24036.92856919  .00001289  00000-0  11582-3 0  9992,2 55751  70.0018   7.7389 0002685 263.6046  96.4807 14.98325420 51786,6950.207,96.107,573.938,570.206,0.0
55751.0,STARLINK-5577,PAYLOAD,2024-02-06 04:41:40,14.98326935,0.0002751,70.0013,7.0654,262.2716,97.813,3.9305e-05,3.76e-06,0.0,0 STARLINK-5577,1 55751U 23028L   24037.19561085  .00000376  00000-0  39305-4 0  9999,2 55751  70.0013   7.0654 0002751 262.2716  97.8130 14.98326935 51823,6950.202,96.107,573.979,570.155,0.0
55751.0,STARLINK-5577,PAYLOAD,2024-02-06 07:53:56,14.98328756,0.0002723,70.0015,6.7294,262.9701,97.1148,6.2087e-05,6.48e-06,0.0,0 STARLINK-5577,1 55751U 23028L   24037.32912948  .00000648  00000-0  62087-4 0  9997,2 55751  70.0015   6.7294 0002723 262.9701  97.1148 14.98328756 51848,6950.197,96.107,573.954,570.169,0.0
55751.0,STARLINK-5577,PAYLOAD,2024-02-06 22:19:09,14.98306935,0.0002557,70.002,5.2147,258.2438,101.8434,0.00037171,4.342e-05,0.0,0 STARLINK-5577,1 55751U 23028L   24037.92997263  .00004342  00000-0  37171-3 0  9996,2 55751  70.0020   5.2147 0002557 258.2438 101.8434 14.98306935 51931,6950.264,96.108,573.906,570.352,0.0
55751.0,STARLINK-5577,PAYLOAD,2024-02-07 07:55:57,14.98329649,0.0002598,70.0018,4.2052,260.9974,99.0891,-2.1191e-05,-3.46e-06,0.0,0 STARLINK-5577,1 55751U 23028L   24038.33053176 -.00000346  00000-0 -21191-4 0  9996,2 55751  70.0018   4.2052 0002598 260.9974  99.0891 14.98329649 51990,6950.194,96.107,573.865,570.253,0.0
